"ID","TITLE","COMPANY","STREET","CITY","STATE","ADDRESS","PHONE"
"00Q1500000rxWgFEAU","Director of Vendor Relations","Farmers Coop. of Florida","321 Westcott Building","Tallahassee","FL","","(850) 644-4200"
"00Q1500000rxWgGEAU","CFO","Abbott Insurance","","","VA","","(703) 757-1000"
"00Q1500000rxWgHEAU","SVP, Procurement","Jackson Controls","","","","","886-2-25474189"
"00Q1500000rxWgIEAU","VP, Technology","Metropolitan Health Services","","","MD","","(410) 381-2334"
"00Q1500000rxWgJEAU","CEO","International Shipping Co.","","","NC","","(336) 777-1970"
"00Q1500000rxWgKEAU","CFO","Cadinal Inc.","","","IL","","(847) 262-5000"
"00Q1500000rxWgLEAU","VP, Finance","Emerson Transport","","","GA","","(770) 395-2370"
"00Q1500000rxWgMEAU","Regional General Manager","TNR Corp.","","","CT","","(860) 273-0123"
"00Q1500000rxWgNEAU","SVP, Production","Delphi Chemicals","","","MN","","(952) 346-3500"
"00Q1500000rxWgOEAU","SVP, Technology","Western Telecommunications Corp.","","","CA","","(408) 326-9000"
"00Q1500000rxWgPEAU","SVP, Technology","Hendrickson Trading","","","PA","","(570) 326-1571"
"00Q1500000rxWgQEAU","VP, Facilities","Greenwich Media","","","OH","","(419) 289-3555"
"00Q1500000rxWgREAU","SVP, Administration and Finance","Pyramid Construction Inc.","","","","","33562156600"
"00Q1500000rxWgSEAU","SVP, Operations","Dickenson plc","","","KS","","(620) 241-6200"
"00Q1500000rxWgTEAU","Director, Warehouse Mgmt","Aethna Home Products","","","VA","","(434) 369-3100"
"00Q1500000rxWgUEAU","CFO","Blues Entertainment Corp.","","","","","(033) 452-1299"
"00Q1500000rxWgVEAU","VP, Technology","Ace Iron and Steel Inc.","","","AL","","(251) 679-2200"
"00Q1500000rxWgWEAU","VP, Facilities","Burlington Textiles Corp of America","525 S. Lexington Ave","Burlington","NC","","(336) 222-7000"
"00Q1500000rxWgXEAU","CFO","Zenith Industrial Partners","","","OH","","(614) 431-5000"
"00Q1500000rxWgYEAU","CEO","Pacific Retail Group","","","MA","","(781) 270-6500"
"00Q1500000rxWgZEAU","VP, Production","Highland Manufacturing Ltd.","","","CA","","(626) 440-0700"
"00Q1500000rxWgaEAE","VP, Administration","American Banking Corp.","","","PA","","(610) 265-9100"
